[ {"CREATION_DATE": "2021-10-01T18:05:37", "OBJECT_NAME": "CRRES DEB (CANISTER)", "OBJECT_ID": "1990-065S", "EPOCH": "2021-10-01T10:22:31.461312", "FILE": "3138865", "TLE_LINE0": "0 CRRES DEB (CANISTER)", "TLE_LINE1": "1 21948U 90065S   21274.43230858  .00005101  00000-0  82916-3 0  9999", "TLE_LINE2": "2 21948  17.4911 195.9915 6356194  55.2242 349.1674  3.53149940301086"}, {"CREATION_DATE": "2021-10-01T18:05:37", "OBJECT_NAME": "DMSP 5D-2 F11 DEB", "OBJECT_ID": "1991-082AW", "EPOCH": "2021-10-01T10:22:30.838368", "FILE": "3138865", "TLE_LINE0": "0 DMSP 5D-2 F11 DEB", "TLE_LINE1": "1 28333U 91082AW  21274.43230137  .00001654  00000-0  55874-3 0  9996", "TLE_LINE2": "2 28333  98.6184 326.9765 0011931 125.7438 244.8308 14.38226137906461"}, {"CREATION_DATE": "2021-10-01T18:05:37", "OBJECT_NAME": "SL-14 DEB", "OBJECT_ID": "1991-056AZ", "EPOCH": "2021-10-01T10:22:15.576672", "FILE": "3138865", "TLE_LINE0": "0 SL-14 DEB", "TLE_LINE1": "1 45311U 91056AZ  21274.43212473  .00000108  00000-0  24231-3 0  9991", "TLE_LINE2": "2 45311  82.5455 272.9658 0018897  97.7148 262.6122 13.18230011 76973"}, {"CREATION_DATE": "2021-10-01T18:05:37", "OBJECT_NAME": "BREEZE-M DEB (TANK)", "OBJECT_ID": "2003-056E", "EPOCH": "2021-10-01T10:22:13.548864", "FILE": "3138865", "TLE_LINE0": "0 BREEZE-M DEB (TANK)", "TLE_LINE1": "1 28116U 03056E   21274.43210126  .00000017  00000-0  36999-4 0  9995", "TLE_LINE2": "2 28116  52.9784 357.1300 5692333  89.1736 331.9830  4.39564166281854"}, {"CREATION_DATE": "2021-10-01T18:05:37", "OBJECT_NAME": "FENGYUN 1C DEB", "OBJECT_ID": "1999-025PY", "EPOCH": "2021-10-01T10:21:21.580128", "FILE": "3138865", "TLE_LINE0": "0 FENGYUN 1C DEB", "TLE_LINE1": "1 30071U 99025PY  21274.43149977  .00001239  00000-0  52234-3 0  9990", "TLE_LINE2": "2 30071  98.7380 342.1271 0058255 320.1582  52.0723 14.26590113762303"}, {"CREATION_DATE": "2021-10-01T18:05:37", "OBJECT_NAME": "COSMOS 886 DEB", "OBJECT_ID": "1976-126V", "EPOCH": "2021-10-01T10:21:15.532128", "FILE": "3138865", "TLE_LINE0": "0 COSMOS 886 DEB", "TLE_LINE1": "1 09724U 76126V   21274.43142977  .00000715  00000-0  34532-3 0  9990", "TLE_LINE2": "2 09724  65.8221  81.8717 0825488 218.3259 135.6279 13.16038181110451"}, {"CREATION_DATE": "2021-10-01T18:05:37", "OBJECT_NAME": "NOAA 16 DEB", "OBJECT_ID": "2000-055CW", "EPOCH": "2021-10-01T10:21:08.688384", "FILE": "3138865", "TLE_LINE0": "0 NOAA 16 DEB", "TLE_LINE1": "1 41163U 00055CW  21274.43135056  .00001734  00000-0  66123-3 0  9994", "TLE_LINE2": "2 41163  99.0773  87.2617 0072557  22.5879 337.8469 14.30755013304211"}, {"CREATION_DATE": "2021-10-01T18:05:37", "OBJECT_NAME": "NOAA 16 DEB", "OBJECT_ID": "2000-055NC", "EPOCH": "2021-10-01T10:21:01.331424", "FILE": "3138865", "TLE_LINE0": "0 NOAA 16 DEB", "TLE_LINE1": "1 41528U 00055NC  21274.43126541  .00002226  00000-0  10933-2 0  9992", "TLE_LINE2": "2 41528  98.7940 344.1928 0028397 210.2365 149.7173 14.18515549285840"}, {"CREATION_DATE": "2021-10-01T18:05:37", "OBJECT_NAME": "BREEZE-M DEB (TANK)", "OBJECT_ID": "2008-006B", "EPOCH": "2021-10-01T10:20:22.287264", "FILE": "3138865", "TLE_LINE0": "0 BREEZE-M DEB (TANK)", "TLE_LINE1": "1 32488U 08006B   21274.43081351 -.00000154  00000-0 -45879-2 0  9997", "TLE_LINE2": "2 32488  48.3573 238.5099 7046706 348.6031 224.6457  2.21022563110115"}, {"CREATION_DATE": "2021-10-01T18:05:37", "OBJECT_NAME": "FENGYUN 1C DEB", "OBJECT_ID": "1999-025DMB", "EPOCH": "2021-10-01T10:20:11.252256", "FILE": "3138865", "TLE_LINE0": "0 FENGYUN 1C DEB", "TLE_LINE1": "1 35147U 99025DMB 21274.43068579  .00001612  00000-0  52859-3 0  9995", "TLE_LINE2": "2 35147  99.5177 129.5662 0052313  46.3774 314.1732 14.39188849520706"}, {"CREATION_DATE": "2021-10-01T18:05:37", "OBJECT_NAME": "FENGYUN 1C DEB", "OBJECT_ID": "1999-025ABY", "EPOCH": "2021-10-01T10:19:26.153184", "FILE": "3138865", "TLE_LINE0": "0 FENGYUN 1C DEB", "TLE_LINE1": "1 30361U 99025ABY 21274.43016381  .00000626  00000-0  32467-3 0  9999", "TLE_LINE2": "2 30361  98.7108 325.1803 0075190 136.5401 224.1734 14.16851067758521"}, {"CREATION_DATE": "2021-10-01T18:05:37", "OBJECT_NAME": "COSMOS 2251 DEB", "OBJECT_ID": "1993-036TA", "EPOCH": "2021-10-01T10:19:20.214048", "FILE": "3138865", "TLE_LINE0": "0 COSMOS 2251 DEB", "TLE_LINE1": "1 34457U 93036TA  21274.43009507  .00002801  00000-0  50005-3 0  9992", "TLE_LINE2": "2 34457  74.0003 251.9150 0101264  36.8499 120.5453 14.64149664669944"}, {"CREATION_DATE": "2021-10-01T18:05:37", "OBJECT_NAME": "DELTA 1 DEB", "OBJECT_ID": "1973-086GV", "EPOCH": "2021-10-01T10:19:10.373952", "FILE": "3138865", "TLE_LINE0": "0 DELTA 1 DEB", "TLE_LINE1": "1 18472U 73086GV  21274.42998118 -.00000047  00000-0 -80775-5 0  9999", "TLE_LINE2": "2 18472 101.3032 324.7890 0014478 351.1555  21.8450 12.77480828704778"}, {"CREATION_DATE": "2021-10-01T18:05:37", "OBJECT_NAME": "FENGYUN 1C DEB", "OBJECT_ID": "1999-025EKQ", "EPOCH": "2021-10-01T10:19:05.229696", "FILE": "3138865", "TLE_LINE0": "0 FENGYUN 1C DEB", "TLE_LINE1": "1 37596U 99025EKQ 21274.42992164  .00001307  00000-0  62782-3 0  9997", "TLE_LINE2": "2 37596  98.9335 343.4979 0031047  88.5427 334.0642 14.20412253363780"}, {"CREATION_DATE": "2021-10-01T18:05:37", "OBJECT_NAME": "IRIDIUM 33 DEB", "OBJECT_ID": "1997-051ACN", "EPOCH": "2021-10-01T10:18:59.930784", "FILE": "3138865", "TLE_LINE0": "0 IRIDIUM 33 DEB", "TLE_LINE1": "1 46980U 97051ACN 21274.42986031  .00001570  00000-0  40522-3 0  9997", "TLE_LINE2": "2 46980  86.3840 324.3631 0007710 322.8384  37.2285 14.49422323365493"}, {"CREATION_DATE": "2021-10-01T18:05:37", "OBJECT_NAME": "NIMBUS 2 DEB", "OBJECT_ID": "1966-040X", "EPOCH": "2021-10-01T10:18:50.840640", "FILE": "3138865", "TLE_LINE0": "0 NIMBUS 2 DEB", "TLE_LINE1": "1 28209U 66040X   21274.42975510  .00000926  00000-0  14163-2 0  9990", "TLE_LINE2": "2 28209 100.3024 154.9015 0040194 226.8299 309.1106 13.54639083399287"}, {"CREATION_DATE": "2021-10-01T18:05:37", "OBJECT_NAME": "FENGYUN 1C DEB", "OBJECT_ID": "1999-025CHE", "EPOCH": "2021-10-01T10:18:44.286336", "FILE": "3138865", "TLE_LINE0": "0 FENGYUN 1C DEB", "TLE_LINE1": "1 31816U 99025CHE 21274.42967924  .00000393  00000-0  34100-3 0  9999", "TLE_LINE2": "2 31816  98.8708  67.0901 0127762  15.3160   5.4219 13.88209944723837"}, {"CREATION_DATE": "2021-10-01T18:05:37", "OBJECT_NAME": "THORAD AGENA D DEB", "OBJECT_ID": "1970-025AV", "EPOCH": "2021-10-01T10:18:41.023872", "FILE": "3138865", "TLE_LINE0": "0 THORAD AGENA D DEB", "TLE_LINE1": "1 04672U 70025AV  21274.42964148  .00000022  00000-0  94621-4 0  9997", "TLE_LINE2": "2 04672  99.5715 158.6517 0039051  70.0625 290.4713 13.54275498536994"}, {"CREATION_DATE": "2021-10-01T18:05:37", "OBJECT_NAME": "YAOGAN 28 DEB", "OBJECT_ID": "2015-064C", "EPOCH": "2021-10-01T10:18:26.973504", "FILE": "3138865", "TLE_LINE0": "0 YAOGAN 28 DEB", "TLE_LINE1": "1 41040U 15064C   21274.42947886  .00006116  00000-0  14176-3 0  9995", "TLE_LINE2": "2 41040  97.5118  88.8417 0015648  76.8794 283.4198 15.42685872329965"}, {"CREATION_DATE": "2021-10-01T18:05:37", "OBJECT_NAME": "FENGYUN 1C DEB", "OBJECT_ID": "1999-025BYW", "EPOCH": "2021-10-01T10:18:25.086528", "FILE": "3138865", "TLE_LINE0": "0 FENGYUN 1C DEB", "TLE_LINE1": "1 31555U 99025BYW 21274.42945702  .00001041  00000-0  38983-3 0  9993", "TLE_LINE2": "2 31555  99.1511 135.6020 0204356 322.8119  35.9048 14.23277978746387"}, {"CREATION_DATE": "2021-10-01T18:05:37", "OBJECT_NAME": "COSMOS 1275 DEB", "OBJECT_ID": "1981-053GE", "EPOCH": "2021-10-01T10:18:15.529824", "FILE": "3138865", "TLE_LINE0": "0 COSMOS 1275 DEB", "TLE_LINE1": "1 13484U 81053GE  21274.42934641  .00000884  00000-0  63088-3 0  9994", "TLE_LINE2": "2 13484  82.9205 239.3346 0030117 305.1748 179.5913 13.96122623985415"}, {"CREATION_DATE": "2021-10-01T18:05:37", "OBJECT_NAME": "OPS 4682 DEB", "OBJECT_ID": "1965-027CK", "EPOCH": "2021-10-01T10:18:09.280512", "FILE": "3138865", "TLE_LINE0": "0 OPS 4682 DEB", "TLE_LINE1": "1 38382U 65027CK  21274.42927408 -.00000129  00000-0 -47962-3 0  9991", "TLE_LINE2": "2 38382  90.2810 328.5236 0023363  11.2181 348.9455 12.95930389839991"}, {"CREATION_DATE": "2021-10-01T18:05:37", "OBJECT_NAME": "COSMOS 2251 DEB", "OBJECT_ID": "1993-036AXH", "EPOCH": "2021-10-01T10:18:04.476672", "FILE": "3138865", "TLE_LINE0": "0 COSMOS 2251 DEB", "TLE_LINE1": "1 36046U 93036AXH 21274.42921848  .00000412  00000-0  10076-3 0  9998", "TLE_LINE2": "2 36046  74.0198 319.0826 0066957 126.0642 247.9277 14.54498641416480"}, {"CREATION_DATE": "2021-10-01T18:05:37", "OBJECT_NAME": "NOAA 16 DEB", "OBJECT_ID": "2000-055FS", "EPOCH": "2021-10-01T10:17:43.165248", "FILE": "3138865", "TLE_LINE0": "0 NOAA 16 DEB", "TLE_LINE1": "1 41266U 00055FS  21274.42897182  .00000917  00000-0  50854-3 0  9998", "TLE_LINE2": "2 41266  98.7708 342.5979 0002953 267.3416  92.7418 14.13699975297864"}, {"CREATION_DATE": "2021-10-01T18:05:37", "OBJECT_NAME": "DMSP 5D-2 F13 DEB", "OBJECT_ID": "1995-015JX", "EPOCH": "2021-10-01T10:17:32.532864", "FILE": "3138865", "TLE_LINE0": "0 DMSP 5D-2 F13 DEB", "TLE_LINE1": "1 42329U 95015JX  21274.42884876  .00002136  00000-0  66107-3 0  9998", "TLE_LINE2": "2 42329  98.6037 323.9670 0072943  59.4319 301.4040 14.40746515315201"}, {"CREATION_DATE": "2021-10-01T18:05:37", "OBJECT_NAME": "FENGYUN 1C DEB", "OBJECT_ID": "1999-025ENG", "EPOCH": "2021-10-01T10:16:50.024928", "FILE": "3138865", "TLE_LINE0": "0 FENGYUN 1C DEB", "TLE_LINE1": "1 37907U 99025ENG 21274.42835677  .00001437  00000-0  88211-3 0  9997", "TLE_LINE2": "2 37907  99.1053 345.0976 0081456 175.2565 184.9392 14.05707138616267"}, {"CREATION_DATE": "2021-10-01T18:05:37", "OBJECT_NAME": "FENGYUN 1C DEB", "OBJECT_ID": "1999-025AUV", "EPOCH": "2021-10-01T10:16:44.332896", "FILE": "3138865", "TLE_LINE0": "0 FENGYUN 1C DEB", "TLE_LINE1": "1 30811U 99025AUV 21274.42829089  .00000625  00000-0  72624-3 0  9993", "TLE_LINE2": "2 30811  98.7696  90.0185 0296136  60.6840 302.3544 13.54887556720589"}]